[{"OBJECT_NAME":"JILIN-1 GAOFEN 03D47","OBJECT_ID":"2022-167L","EPOCH":"2026-03-09T22:56:46.924224","MEAN_MOTION":15.31686941,"ECCENTRICITY":0.00089304,"INCLINATION":97.6835,"RA_OF_ASC_NODE":234.6581,"ARG_OF_PERICENTER":110.4031,"MEAN_ANOMALY":249.8169,"EPHEMERIS_TYPE":0,"CLASSIFICATION_TYPE":"U","NORAD_CAT_ID":54692,"ELEMENT_SET_NO":999,"REV_AT_EPOCH":18014,"BSTAR":0.00047294748,"MEAN_MOTION_DOT":0.00014417,"MEAN_MOTION_DDOT":0},{"OBJECT_NAME":"STARLINK-32759","OBJECT_ID":"2025-014S","EPOCH":"2026-03-09T07:01:10.009344","MEAN_MOTION":15.27605558,"ECCENTRICITY":0.00036256,"INCLINATION":42.9997,"RA_OF_ASC_NODE":160.3567,"ARG_OF_PERICENTER":294.6034,"MEAN_ANOMALY":65.444,"EPHEMERIS_TYPE":0,"CLASSIFICATION_TYPE":"U","NORAD_CAT_ID":62751,"ELEMENT_SET_NO":999,"REV_AT_EPOCH":6315,"BSTAR":0.0012869334,"MEAN_MOTION_DOT":0.00035353,"MEAN_MOTION_DDOT":0}]
